CUTE-1 (CO-55)          
1 27844U 03031E   26131.01616769  .00000204  00000+0  10731-3 0  9991
2 27844  98.6748 140.0418 0008393 297.0013  63.0309 14.24312209186387
CUBESAT XI-IV (CO-57)   
1 27848U 03031J   26131.47801683  .00000163  00000+0  90730-4 0  9998
2 27848  98.6780 140.2400 0008542 316.3699  43.6804 14.23600673186154
CUBESAT XI-V            
1 28895U 05043F   26131.37052593  .00000850  00000+0  14206-3 0  9999
2 28895  98.2945 286.2304 0013241 326.6866  33.3506 14.72532793 96338
CUTE-1.7+APD II (CO-65) 
1 32785U 08021C   26131.51908946  .00002606  00000+0  16846-3 0  9992
2 32785  97.8260 112.1905 0009956 144.3006 215.8890 15.09098170979665
CANX-2                  
1 32790U 08021H   26131.39971929  .00002172  00000+0  15604-3 0  9994
2 32790  97.8629 110.4762 0010994 158.4481 201.7210 15.05353572979272
SEEDS II (CO-66)        
1 32791U 08021J   26130.97235940  .00011027  00000+0  36525-3 0  9998
2 32791  97.7530 127.1344 0005072  88.5832 271.5989 15.31474077981597
SWISSCUBE               
1 35932U 09051B   26131.22229604  .00000628  00000+0  13391-3 0  9992
2 35932  98.4059  38.4650 0006332 339.6318  20.4629 14.62408237883753
BEESAT-1                
1 35933U 09051C   26131.48647191  .00000510  00000+0  11231-3 0  9997
2 35933  98.3987  38.4455 0005156 356.8810   3.2357 14.61658653883820
ITUPSAT1                
1 35935U 09051E   26130.69163038  .00000508  00000+0  11516-3 0  9997
2 35935  98.4072  36.8697 0007623   5.6146 354.5137 14.60382828883263
TISAT 1                 
1 36799U 10035E   26131.38463647  .00013280  00000+0  45560-3 0  9993
2 36799  98.0690  74.7177 0003667  55.9928 304.1659 15.30302000862076
AEROCUBE 4.5A           
1 38767U 12048K   26131.37194983  .00119564  00000+0  70074-3 0  9999
2 38767  64.6291 159.4897 0019436 217.3526 142.6278 15.77454773366828
STRAND-1                
1 39090U 13009E   26131.50430227  .00000179  00000+0  74739-4 0  9990
2 39090  98.3917 312.6433 0008295 349.0918  11.0088 14.37141086691795
BRITE-AUSTRIA           
1 39091U 13009F   26131.43178424  .00000110  00000+0  51969-4 0  9996
2 39091  98.3988 311.7791 0010037 357.0743   3.0383 14.36527080691771
NEE-01 PEGASO           
1 39151U 13018B   26131.35127053  .00002004  00000+0  19616-3 0  9992
2 39151  98.1174 274.3002 0011195 287.0471  72.9521 14.93478823705204
POPACS 2                
1 39269U 13055E   26131.12610146  .00009955  00000+0  17088-3 0  9991
2 39269  80.9930 186.5907 0419443 313.0117  43.6645 14.90374797657699
POPACS 3                
1 39270U 13055F   26130.79436909  .00011585  00000+0  27727-3 0  9991
2 39270  81.0002 269.7007 0554988 183.7065 175.9951 14.55199926633116
ZACUBE-1 (TSHEPISOSAT)  
1 39417U 13066B   26131.14341808  .00003157  00000+0  24836-3 0  9993
2 39417  97.8120  93.2797 0042131  17.8518 342.4174 15.00898646675179
WNISAT-1                
1 39423U 13066H   26131.35882419  .00000305  00000+0  64546-4 0  9996
2 39423  97.7157 283.1389 0162816 348.4142  11.3329 14.58016619661365
TRITON-1                
1 39427U 13066M   26131.55686462  .00001291  00000+0  16027-3 0  9997
2 39427  97.8260  42.1979 0090244 354.8161   5.2109 14.81540792668668
GOMX-1                  
1 39430U 13066Q   26131.54934679  .00001294  00000+0  20091-3 0  9995
2 39430  97.6515 334.3223 0128325 194.5638 165.1858 14.69314246664539
CUBEBUG-2 (LO-74)       
1 39440U 13066AA  26131.35080674  .00002195  00000+0  20735-3 0  9998
2 39440  97.8888  80.1880 0058774 148.0280 212.4528 14.93485848671494
NEE-02 KRYSAOR          
1 39441U 13066AB  26131.38962223  .00000982  00000+0  11322-3 0  9995
2 39441  97.8880  70.8755 0065924 189.0931 170.9096 14.86480005670733
FUNCUBE-1 (AO-73)       
1 39444U 13066AE  26131.52516395  .00005408  00000+0  34135-3 0  9994
2 39444  97.8258 102.2242 0035589 331.3206  28.6063 15.09008252674134
UWE-3                   
1 39446U 13066AG  26131.38258806  .00001982  00000+0  17442-3 0  9995
2 39446  97.8679  87.2245 0050993  82.4321 278.2689 14.96714136672074
BRITE-CA1 (TORONTO)     
1 40020U 14033L   26131.34728897  .00000474  00000+0  78824-4 0  9995
2 40020  97.9685 260.9668 0079402  35.7498 324.8989 14.72625776636798
DUCHIFAT-1              
1 40021U 14033M   26131.41895469  .00055146  00000+0  72925-3 0  9995
2 40021  98.0508 185.6247 0005703 190.8240 169.2891 15.58150241650011
NANOSATC-BR1            
1 40024U 14033Q   26131.53536653  .00009937  00000+0  34204-3 0  9993
2 40024  98.0758 160.7076 0002026 334.6480  25.4659 15.30286186648373
QB50P1                  
1 40025U 14033R   26131.49884576  .00005562  00000+0  27960-3 0  9990
2 40025  98.0984 140.0889 0008530   3.8337 356.2959 15.17684156647461
QB50P2                  
1 40032U 14033Y   26131.44113330  .00004121  00000+0  22665-3 0  9993
2 40032  98.0758 126.0504 0005901 309.5407  50.5301 15.14684348647105
PERSEUS-M2              
1 40037U 14033AD  26131.52991626  .00001140  00000+0  10863-3 0  9994
2 40037  97.9936  81.3327 0013119  64.0500 296.2070 14.95392627645305
